{"type": "FeatureCollection", "features": [ {"type": "Feature", "properties": {"norad_id": 42741, "name": "EUTELSAT 172B", "group": "eutelsat", "lat": -0.010792980419889419, "lon": -32.72469891535889, "alt_km": 35786.69724515825, "timestamp": "2025-12-11T05:00:25.982499+00:00", "meta": {"OBJECT_NAME": "EUTELSAT 172B", "OBJECT_ID": "2017-029B", "EPOCH": "2025-12-10T19:29:49.356384", "MEAN_MOTION": 1.00269514, "ECCENTRICITY": 1.051e-05, "INCLINATION": 0.0415, "RA_OF_ASC_NODE": 150.1561, "ARG_OF_PERICENTER": 87.9316, "MEAN_ANOMALY": 306.1501, "EPHEMERIS_TYPE": 0, "CLASSIFICATION_TYPE": "U", "NORAD_CAT_ID": 42741, "ELEMENT_SET_NO": 999, "REV_AT_EPOCH": 3184, "BSTAR": 0, "MEAN_MOTION_DOT": -1e-08, "MEAN_MOTION_DDOT": 0}, "tle": {"line1": "1 42741U 17029B   25344.81237681 -.00000001  00000+0  00000+0 0  9991", "line2": "2 42741   0.0415 150.1561 0000105  87.9316 306.1501  1.00269514 31849"}}, "geometry": {"type": "Point", "coordinates": [-32.72469891535889, -0.010792980419889419]}}, {"type": "Feature", "properties": {"norad_id": 44334, "name": "EUTELSAT 7C", "group": "eutelsat", "lat": -0.025077675420619443, "lon": 162.22596172377857, "alt_km": 35783.182357621445, "timestamp": "2025-12-11T05:00:25.982511+00:00", "meta": {"OBJECT_NAME": "EUTELSAT 7C", "OBJECT_ID": "2019-034B", "EPOCH": "2025-12-10T15:17:18.757824", "MEAN_MOTION": 1.00272724, "ECCENTRICITY": 0.00034057, "INCLINATION": 0.0725, "RA_OF_ASC_NODE": 179.3579, "ARG_OF_PERICENTER": 62.354, "MEAN_ANOMALY": 74.2106, "EPHEMERIS_TYPE": 0, "CLASSIFICATION_TYPE": "U", "NORAD_CAT_ID": 44334, "ELEMENT_SET_NO": 999, "REV_AT_EPOCH": 494, "BSTAR": 0, "MEAN_MOTION_DOT": 5.3e-07, "MEAN_MOTION_DDOT": 0}, "tle": {"line1": "1 44334U 19034B   25344.63702266  .00000053  00000+0  00000+0 0  9991", "line2": "2 44334   0.0725 179.3579 0003405  62.3540  74.2106  1.00272724  4949"}}, "geometry": {"type": "Point", "coordinates": [162.22596172377857, -0.025077675420619443]}}, {"type": "Feature", "properties": {"norad_id": 44624, "name": "EUTELSAT 5 WEST B", "group": "eutelsat", "lat": 0.019686176858534837, "lon": 150.23876784000603, "alt_km": 35791.2461223585, "timestamp": "2025-12-11T05:00:25.982522+00:00", "meta": {"OBJECT_NAME": "EUTELSAT 5 WEST B", "OBJECT_ID": "2019-067A", "EPOCH": "2025-12-10T21:43:38.678592", "MEAN_MOTION": 1.00271486, "ECCENTRICITY": 0.00034352, "INCLINATION": 0.063, "RA_OF_ASC_NODE": 345.5119, "ARG_OF_PERICENTER": 275.2352, "MEAN_ANOMALY": 140.0368, "EPHEMERIS_TYPE": 0, "CLASSIFICATION_TYPE": "U", "NORAD_CAT_ID": 44624, "ELEMENT_SET_NO": 999, "REV_AT_EPOCH": 2254, "BSTAR": 0, "MEAN_MOTION_DOT": -3.7e-07, "MEAN_MOTION_DDOT": 0}, "tle": {"line1": "1 44624U 19067A   25344.90530878 -.00000037  00000+0  00000+0 0  9990", "line2": "2 44624   0.0630 345.5119 0003435 275.2352 140.0368  1.00271486 22544"}}, "geometry": {"type": "Point", "coordinates": [150.23876784000603, 0.019686176858534837]}}, {"type": "Feature", "properties": {"norad_id": 45027, "name": "EUTELSAT KONNECT", "group": "eutelsat", "lat": 0.0606103502422647, "lon": 162.45302150134606, "alt_km": 35791.600150912054, "timestamp": "2025-12-11T05:00:25.982534+00:00", "meta": {"OBJECT_NAME": "EUTELSAT KONNECT", "OBJECT_ID": "2020-005B", "EPOCH": "2025-12-10T21:35:38.732640", "MEAN_MOTION": 1.00267138, "ECCENTRICITY": 0.00016833, "INCLINATION": 0.0689, "RA_OF_ASC_NODE": 96.4671, "ARG_OF_PERICENTER": 192.8364, "MEAN_ANOMALY": 121.6725, "EPHEMERIS_TYPE": 0, "CLASSIFICATION_TYPE": "U", "NORAD_CAT_ID": 45027, "ELEMENT_SET_NO": 999, "REV_AT_EPOCH": 2244, "BSTAR": 0, "MEAN_MOTION_DOT": 5.4e-07, "MEAN_MOTION_DDOT": 0}, "tle": {"line1": "1 45027U 20005B   25344.89975385  .00000054  00000+0  00000+0 0  9994", "line2": "2 45027   0.0689  96.4671 0001683 192.8364 121.6725  1.00267138 22441"}}, "geometry": {"type": "Point", "coordinates": [162.45302150134606, 0.0606103502422647]}}, {"type": "Feature", "properties": {"norad_id": 49056, "name": "EUTELSAT QUANTUM", "group": "eutelsat", "lat": -0.007486852412206939, "lon": -157.06517132072406, "alt_km": 35780.70799751503, "timestamp": "2025-12-11T05:00:25.982545+00:00", "meta": {"OBJECT_NAME": "EUTELSAT QUANTUM", "OBJECT_ID": "2021-069B", "EPOCH": "2025-12-10T21:35:38.297184", "MEAN_MOTION": 1.00271679, "ECCENTRICITY": 0.00036973, "INCLINATION": 0.0176, "RA_OF_ASC_NODE": 26.625, "ARG_OF_PERICENTER": 246.353, "MEAN_ANOMALY": 178.4974, "EPHEMERIS_TYPE": 0, "CLASSIFICATION_TYPE": "U", "NORAD_CAT_ID": 49056, "ELEMENT_SET_NO": 999, "REV_AT_EPOCH": 1604, "BSTAR": 0, "MEAN_MOTION_DOT": 1.31e-06, "MEAN_MOTION_DDOT": 0}, "tle": {"line1": "1 49056U 21069B   25344.89974881  .00000131  00000+0  00000+0 0  9997", "line2": "2 49056   0.0176  26.6250 0003697 246.3530 178.4974  1.00271679 16043"}}, "geometry": {"type": "Point", "coordinates": [-157.06517132072406, -0.007486852412206939]}}, {"type": "Feature", "properties": {"norad_id": 53765, "name": "EUTELSAT KONNECT VHTS", "group": "eutelsat", "lat": 0.05564056652168242, "lon": 157.9525018683922, "alt_km": 35784.46296534571, "timestamp": "2025-12-11T05:00:25.982557+00:00", "meta": {"OBJECT_NAME": "EUTELSAT KONNECT VHTS", "OBJECT_ID": "2022-110A", "EPOCH": "2025-12-10T21:43:26.679360", "MEAN_MOTION": 1.00271283, "ECCENTRICITY": 0.00025228, "INCLINATION": 0.0665, "RA_OF_ASC_NODE": 100.6412, "ARG_OF_PERICENTER": 137.7936, "MEAN_ANOMALY": 170.0043, "EPHEMERIS_TYPE": 0, "CLASSIFICATION_TYPE": "U", "NORAD_CAT_ID": 53765, "ELEMENT_SET_NO": 999, "REV_AT_EPOCH": 493, "BSTAR": 0, "MEAN_MOTION_DOT": 2.2e-07, "MEAN_MOTION_DDOT": 0}, "tle": {"line1": "1 53765U 22110A   25344.90516990  .00000022  00000+0  00000+0 0  9991", "line2": "2 53765   0.0665 100.6412 0002522 137.7936 170.0043  1.00271283  4931"}}, "geometry": {"type": "Point", "coordinates": [157.9525018683922, 0.05564056652168242]}}, {"type": "Feature", "properties": {"norad_id": 54048, "name": "EUTELSAT HOTBIRD 13F", "group": "eutelsat", "lat": -0.044531057972081074, "lon": 168.2954893137962, "alt_km": 35794.572492623425, "timestamp": "2025-12-11T05:00:25.982568+00:00", "meta": {"OBJECT_NAME": "EUTELSAT HOTBIRD 13F", "OBJECT_ID": "2022-134A", "EPOCH": "2025-12-10T15:18:56.102976", "MEAN_MOTION": 1.00270783, "ECCENTRICITY": 0.00019867, "INCLINATION": 0.05, "RA_OF_ASC_NODE": 291.2152, "ARG_OF_PERICENTER": 65.1687, "MEAN_ANOMALY": 325.9772, "EPHEMERIS_TYPE": 0, "CLASSIFICATION_TYPE": "U", "NORAD_CAT_ID": 54048, "ELEMENT_SET_NO": 999, "REV_AT_EPOCH": 1148, "BSTAR": 0, "MEAN_MOTION_DOT": 9.1e-07, "MEAN_MOTION_DDOT": 0}, "tle": {"line1": "1 54048U 22134A   25344.63814934  .00000091  00000+0  00000+0 0  9997", "line2": "2 54048   0.0500 291.2152 0001986  65.1687 325.9772  1.00270783 11484"}}, "geometry": {"type": "Point", "coordinates": [168.2954893137962, -0.044531057972081074]}}, {"type": "Feature", "properties": {"norad_id": 54225, "name": "EUTELSAT HOTBIRD 13G", "group": "eutelsat", "lat": -0.04538980369639159, "lon": 168.26331504189446, "alt_km": 35778.695878725484, "timestamp": "2025-12-11T05:00:25.982579+00:00", "meta": {"OBJECT_NAME": "EUTELSAT HOTBIRD 13G", "OBJECT_ID": "2022-146A", "EPOCH": "2025-12-10T21:35:38.732640", "MEAN_MOTION": 1.00270676, "ECCENTRICITY": 0.00018904, "INCLINATION": 0.05, "RA_OF_ASC_NODE": 236.6175, "ARG_OF_PERICENTER": 306.3847, "MEAN_ANOMALY": 233.7703, "EPHEMERIS_TYPE": 0, "CLASSIFICATION_TYPE": "U", "NORAD_CAT_ID": 54225, "ELEMENT_SET_NO": 999, "REV_AT_EPOCH": 557, "BSTAR": 0, "MEAN_MOTION_DOT": 9.2e-07, "MEAN_MOTION_DDOT": 0}, "tle": {"line1": "1 54225U 22146A   25344.89975385  .00000092  00000+0  00000+0 0  9994", "line2": "2 54225   0.0500 236.6175 0001890 306.3847 233.7703  1.00270676  5575"}}, "geometry": {"type": "Point", "coordinates": [168.26331504189446, -0.04538980369639159]}}, {"type": "Feature", "properties": {"norad_id": 54259, "name": "EUTELSAT 10B", "group": "eutelsat", "lat": 0.05346460342486743, "lon": 165.24326263036122, "alt_km": 35783.53668172729, "timestamp": "2025-12-11T05:00:25.982591+00:00", "meta": {"OBJECT_NAME": "EUTELSAT 10B", "OBJECT_ID": "2022-157A", "EPOCH": "2025-12-10T21:35:38.732640", "MEAN_MOTION": 1.00269549, "ECCENTRICITY": 7.496e-05, "INCLINATION": 0.0622, "RA_OF_ASC_NODE": 98.9425, "ARG_OF_PERICENTER": 69.2695, "MEAN_ANOMALY": 245.5365, "EPHEMERIS_TYPE": 0, "CLASSIFICATION_TYPE": "U", "NORAD_CAT_ID": 54259, "ELEMENT_SET_NO": 999, "REV_AT_EPOCH": 1113, "BSTAR": 0, "MEAN_MOTION_DOT": 7.3e-07, "MEAN_MOTION_DDOT": 0}, "tle": {"line1": "1 54259U 22157A   25344.89975385  .00000073  00000+0  00000+0 0  9992", "line2": "2 54259   0.0622  98.9425 0000749  69.2695 245.5365  1.00269549 11133"}}, "geometry": {"type": "Point", "coordinates": [165.24326263036122, 0.05346460342486743]}}, {"type": "Feature", "properties": {"norad_id": 59346, "name": "EUTELSAT 36D", "group": "eutelsat", "lat": -0.014832881815077085, "lon": -168.87559323962262, "alt_km": 35787.450767106944, "timestamp": "2025-12-11T05:00:25.982602+00:00", "meta": {"OBJECT_NAME": "EUTELSAT 36D", "OBJECT_ID": "2024-059A", "EPOCH": "2025-12-10T21:19:38.841600", "MEAN_MOTION": 1.00273055, "ECCENTRICITY": 5.338e-05, "INCLINATION": 0.0177, "RA_OF_ASC_NODE": 350.9173, "ARG_OF_PERICENTER": 342.2646, "MEAN_ANOMALY": 102.4367, "EPHEMERIS_TYPE": 0, "CLASSIFICATION_TYPE": "U", "NORAD_CAT_ID": 59346, "ELEMENT_SET_NO": 999, "REV_AT_EPOCH": 625, "BSTAR": 0, "MEAN_MOTION_DOT": 0, "MEAN_MOTION_DDOT": 0}, "tle": {"line1": "1 59346U 24059A   25344.88864400  .00000000  00000+0  00000+0 0  9991", "line2": "2 59346   0.0177 350.9173 0000533 342.2646 102.4367  1.00273055  6259"}}, "geometry": {"type": "Point", "coordinates": [-168.87559323962262, -0.014832881815077085]}}]}